ONEWEB-0446             
1 51640U 22012U   25056.69988852 -.00000715  00000+0 -20847-2 0  9993
2 51640  87.8892 131.2605 0001780  95.6059 264.5271 13.10374402148227
ONEWEB-0448             
1 51641U 22012V   25056.47580502 -.00000254  00000+0 -76356-3 0  9995
2 51641  87.8893 131.3050 0001885 106.9069 253.2265 13.10375889146863
ONEWEB-0449             
1 51642U 22012W   25056.70986303 -.00000143  00000+0 -44499-3 0  9991
2 51642  87.8884 131.2395 0001669 108.7001 251.4308 13.10375515148205
ONEWEB-0451             
1 51643U 22012X   25056.55750221  .00000059  00000+0  12004-3 0  9994
2 51643  87.9023 100.7958 0001704 100.7640 259.3683 13.17646561152194
ONEWEB-0452             
1 51644U 22012Y   25056.55580992 -.00000203  00000+0 -55517-3 0  9990
2 51644  87.9031 100.8516 0001774 108.0408 252.0917 13.17647920152207
ONEWEB-0456             
1 51646U 22012AA  25056.71982674  .00000250  00000+0  68005-3 0  9999
2 51646  87.8881 131.2006 0002100 102.0661 258.0702 13.10374200148239
ONEWEB-0457             
1 51647U 22012AB  25056.62020999 -.00000791  00000+0 -23035-2 0  9998
2 51647  87.8891 131.2652 0001489 104.7138 255.4154 13.10373918146937
ONEWEB-0458             
1 51648U 22012AC  25056.56545037  .00000306  00000+0  84043-3 0  9994
2 51648  87.8875 131.2741 0001939 107.8201 252.3138 13.10374861148189
